{
    "links": {
        "self": "http://www.neowsapp.com/rest/v1/neo/3459084?api_key=iIulBulltgU6a56xZRHN4H3l9WmuAYTsLGpBGhQ2"
    },
    "id": "3459084",
    "neo_reference_id": "3459084",
    "name": "(2009 HW67)",
    "designation": "2009 HW67",
    "nasa_jpl_url": "http://ssd.jpl.nasa.gov/sbdb.cgi?sstr=3459084",
    "absolute_magnitude_h": 26.1,
    "estimated_diameter": {
        "kilometers": {
            "estimated_diameter_min": 0.0160160338,
            "estimated_diameter_max": 0.0358129403
        },
        "meters": {
            "estimated_diameter_min": 16.0160337979,
            "estimated_diameter_max": 35.8129403019
        },
        "miles": {
            "estimated_diameter_min": 0.0099518989,
            "estimated_diameter_max": 0.0222531225
        },
        "feet": {
            "estimated_diameter_min": 52.5460443254,
            "estimated_diameter_max": 117.4965270602
        }
    },
    "is_potentially_hazardous_asteroid": false,
    "close_approach_data": [
        {
            "close_approach_date": "2009-04-04",
            "close_approach_date_full": "2009-Apr-04 09:53",
            "epoch_date_close_approach": 1238838780000,
            "relative_velocity": {
                "kilometers_per_second": "29.0772803452",
                "kilometers_per_hour": "104678.2092427164",
                "miles_per_hour": "65042.9684041756"
            },
            "miss_distance": {
                "astronomical": "0.1432383367",
                "lunar": "55.7197129763",
                "kilometers": "21428150.072662829",
                "miles": "13314835.0380478802"
            },
            "orbiting_body": "Venus"
        },
        {
            "close_approach_date": "2009-04-24",
            "close_approach_date_full": "2009-Apr-24 14:25",
            "epoch_date_close_approach": 1240583100000,
            "relative_velocity": {
                "kilometers_per_second": "23.0158083638",
                "kilometers_per_hour": "82856.9101095173",
                "miles_per_hour": "51484.0617288831"
            },
            "miss_distance": {
                "astronomical": "0.0027420196",
                "lunar": "1.0666456244",
                "kilometers": "410200.291658252",
                "miles": "254886.6419857976"
            },
            "orbiting_body": "Moon"
        },
        {
            "close_approach_date": "2009-04-24",
            "close_approach_date_full": "2009-Apr-24 19:05",
            "epoch_date_close_approach": 1240599900000,
            "relative_velocity": {
                "kilometers_per_second": "22.9893055484",
                "kilometers_per_hour": "82761.4999744067",
                "miles_per_hour": "51424.7775813195"
            },
            "miss_distance": {
                "astronomical": "0.0026991891",
                "lunar": "1.0499845599",
                "kilometers": "403792.940087217",
                "miles": "250905.2983369146"
            },
            "orbiting_body": "Earth"
        }
    ],
    "orbital_data": {
        "orbit_id": "8",
        "orbit_determination_date": "2017-04-06 09:00:40",
        "first_observation_date": "2009-04-27",
        "last_observation_date": "2009-05-01",
        "data_arc_in_days": 4,
        "observations_used": 27,
        "orbit_uncertainty": "8",
        "minimum_orbit_intersection": ".00121265",
        "jupiter_tisserand_invariant": "3.367",
        "epoch_osculation": "2454949.5",
        "eccentricity": ".7509209575658482",
        "semi_major_axis": "2.049495120508267",
        "inclination": "2.351962236011032",
        "ascending_node_longitude": "216.391875261275",
        "orbital_period": "1071.688967473257",
        "perihelion_distance": ".5104862820896657",
        "perihelion_argument": "259.7907831915163",
        "aphelion_distance": "3.588503958926869",
        "perihelion_time": "2454899.586136339589",
        "mean_anomaly": "16.7669832041976",
        "mean_motion": ".3359183596419579",
        "equinox": "J2000",
        "orbit_class": {
            "orbit_class_type": "APO",
            "orbit_class_description": "Near-Earth asteroid orbits which cross the Earth’s orbit similar to that of 1862 Apollo",
            "orbit_class_range": "a (semi-major axis) > 1.0 AU; q (perihelion) < 1.017 AU"
        }
    },
    "is_sentry_object": false
}